                    "argOfPeriapsis": 26.95951533250759, 
                    "period": 1.122842456691673, 
                    "ascendingNode": 48.52303030523399, 
                    "eccentricity": 0.0007062813949406905, 
                    "periapsisDistance": 0.0007860517865540049, 
                    "timeOfPeriapsis": 2456738.3769672792, 
                    "semiMajorAxis": 0.0007866073526923351, 
                    "apoapsisDistance": 0.0007871629188306654, 
                    "meanAnomalyAtEpoch": 331.7607574249811, 
                    "epoch": 2456738.288888889, 
                    "inclination": 29.02856546337782
                }, 
                "momentOfInertia": 0, 
                "symbol": null, 
                "customOrbit": null, 
                "radius": 208, 
                "ring": null, 
                "id": 1001008, 
                "meanDensity": 0, 
                "surfaceGravity": 0, 
                "lightEmitting": false, 
                "name": "Proteus", 
                "flattening": 0.0, 
                "customRotation": null, 
                "type": "Moon",
                "mass" : 4.4E+19
            }
        ], 
        "customRotation": "com.apoapsys.astronomy.rotation.IAUNeptuneRotation", 
        "type": "Planet"
    }, 
    {
        "escapeVelocity": 1.21, 
        "elements": {
            "argOfPeriapsis": 114.3456729571827, 
            "period": 91320.94674051774, 
            "ascendingNode": 110.1829084505989, 
            "eccentricity": 0.252549316989699, 
            "periapsisDistance": 29.66405581457796, 
            "timeOfPeriapsis": 2447886.2204323304, 
            "semiMajorAxis": 39.68697398884998, 
            "apoapsisDistance": 49.709892163122, 
            "meanAnomalyAtEpoch": 34.89610005266247, 
            "epoch": 2456738.289583333, 
            "inclination": 17.35777058599352
        }, 
        "momentOfInertia": 0, 
        "symbol": "\u2647", 
        "customOrbit": null, 
        "radius": 1195, 
        "ring": null, 
        "id": 1001100, 
        "meanDensity": 1.83, 
        "surfaceGravity": 0.611, 
        "lightEmitting": false, 
        "name": "Pluto", 
        "flattening": 0.0, 
        "mass" : 1.307E+22,
        "moons": [
            {
                "escapeVelocity": 0.58, 
                "elements": {
                    "argOfPeriapsis": 206.5578297381508, 
                    "period": 6.387214126831322, 
                    "ascendingNode": 227.4085520098292, 
                    "eccentricity": 5.250113816883416e-05, 
                    "periapsisDistance": 0.0001309855913664176, 
                    "timeOfPeriapsis": 2456735.776699383, 
                    "semiMajorAxis": 0.0001309924686201117, 
                    "apoapsisDistance": 0.0001309993458738058, 
                    "meanAnomalyAtEpoch": 141.6326749451208, 
                    "epoch": 2456738.289583333, 
                    "inclination": 112.8728030654044
                }, 
                "momentOfInertia": 0, 
                "symbol": null, 
                "customOrbit": null, 
                "radius": 605, 
                "ring": null, 
                "id": 1001101, 
                "meanDensity": 1.65, 
                "surfaceGravity": 0.278, 
                "lightEmitting": false, 
                "name": "Charon", 
                "flattening": 0.0, 
                "customRotation": null, 
                "type": "Moon",
                "mass" : 1.53E+21
            }, 
            {
                "escapeVelocity": 0, 
                "elements": {
                    "argOfPeriapsis": 26.40558597737778, 
                    "period": 30.19133969231462, 
                    "ascendingNode": 227.4267461197112, 
                    "eccentricity": 0.1564268610332619, 
                    "periapsisDistance": 0.0002995372380504631, 
                    "timeOfPeriapsis": 2456734.4200524306, 
                    "semiMajorAxis": 0.000355081526679898, 
                    "apoapsisDistance": 0.0004106258153093329, 
                    "meanAnomalyAtEpoch": 46.14008981184157, 
                    "epoch": 2456738.289583333, 
                    "inclination": 112.8548011173776
                }, 
                "momentOfInertia": 0, 
                "symbol": null, 
                "customOrbit": null, 
                "radius": 50, 
                "ring": null, 
                "id": 1001102, 
                "meanDensity": 0, 
                "surfaceGravity": 0, 
                "lightEmitting": false, 
                "name": "Nix", 
                "flattening": 0.0, 
                "customRotation": null, 
                "type": "Moon"
            }, 
            {
                "escapeVelocity": 0, 
                "elements": {
                    "argOfPeriapsis": 347.8140986237751, 
                    "period": 36.52381100858759, 
                    "ascendingNode": 227.6109623345066, 
                    "eccentricity": 0.168017460562059, 
                    "periapsisDistance": 0.000335406482762271, 
                    "timeOfPeriapsis": 2456748.3343045805, 
                    "semiMajorAxis": 0.0004031412522056775, 
                    "apoapsisDistance": 0.0004708760216490841, 
                    "meanAnomalyAtEpoch": 260.993364354133, 
                    "epoch": 2456738.289583333, 
                    "inclination": 112.6255532858495
                }, 
                "momentOfInertia": 0, 
                "symbol": null, 
                "customOrbit": null, 
                "radius": 50, 
                "ring": null, 
                "id": 1001103, 
                "meanDensity": 0, 
                "surfaceGravity": 0, 
                "lightEmitting": false, 
                "name": "Hydra", 
                "flattening": 0.0, 
                "customRotation": null, 
                "type": "Moon"
            }, 
            {
                "escapeVelocity": 0, 
                "elements": {
                    "argOfPeriapsis": 22.78313925699009, 
                    "period": 41.46390636738708, 
                    "ascendingNode": 227.8707796307139, 
                    "eccentricity": 0.1937497748147627, 
                    "periapsisDistance": 0.0003537171836755792, 
                    "timeOfPeriapsis": 2456733.422728531, 
                    "semiMajorAxis": 0.0004387188649706263, 
                    "apoapsisDistance": 0.0005237205462656733, 
                    "meanAnomalyAtEpoch": 42.25524998419632, 
                    "epoch": 2456738.289583333, 
                    "inclination": 112.6394264630091
                }, 
                "momentOfInertia": 0, 
                "symbol": null, 
                "customOrbit": null, 
                "radius": 50, 
                "ring": null, 
                "id": 1001104, 
                "meanDensity": 0, 
                "surfaceGravity": 0, 
                "lightEmitting": false, 
                "name": "Kerberos", 
                "flattening": 0.0, 
                "customRotation": null, 
                "type": "Moon"
            }, 
            {
                "escapeVelocity": 0, 
                "elements": {
                    "argOfPeriapsis": 31.0511357625079, 
                    "period": 42.37571632710394, 
                    "ascendingNode": 227.6538581688256, 
                    "eccentricity": 0.3658862011966535, 
                    "periapsisDistance": 0.0002822612238893372, 
                    "timeOfPeriapsis": 2456737.0950950715, 
                    "semiMajorAxis": 0.0004451270803789479, 
                    "apoapsisDistance": 0.0006079929368685587, 
                    "meanAnomalyAtEpoch": 10.14769333643082, 
                    "epoch": 2456738.289583333, 
                    "inclination": 112.9194264018355
                }, 
                "momentOfInertia": 0, 
                "symbol": null, 
                "customOrbit": null, 
                "radius": 50, 
                "ring": null, 
                "id": 1001105, 
                "meanDensity": 0, 
                "surfaceGravity": 0, 
                "lightEmitting": false, 
                "name": "Styx", 
                "flattening": 0.0, 
                "customRotation": null, 
                "type": "Moon"
            }
        ], 
        "customRotation": null, 
        "type": "MinorPlanet"
    }, 
    {
        "escapeVelocity": 0, 
        "elements": {
            "argOfPeriapsis": 297.2649501609833, 
            "period": 112675.7213587283, 
            "ascendingNode": 79.32048765624612, 
            "eccentricity": 0.1574368774569014, 
            "periapsisDistance": 38.46718390612687, 
            "timeOfPeriapsis": 2408079.6327312225, 
            "semiMajorAxis": 45.65495792175404, 
            "apoapsisDistance": 52.84273193738122, 
            "meanAnomalyAtEpoch": 155.4648752679399, 
            "epoch": 2456738.290972222, 
            "inclination": 29.01050465803387
        }, 
        "momentOfInertia": 0, 
        "symbol": null, 
        "customOrbit": null, 
        "radius": 715, 
        "ring": null, 
        "id": 1001200, 
        "meanDensity": 0, 
        "surfaceGravity": 0, 
        "lightEmitting": false, 
        "name": "Makemake", 
        "flattening": 0.0, 
        "customRotation": null, 
        "type": "MinorPlanet",
        "mass" : 3.0E+12
    }, 
    {
        "escapeVelocity": 0.518, 
        "elements": {
            "argOfPeriapsis": 311.16051457761, 
            "period": 4512695.054690703, 
            "ascendingNode": 144.5251705632676, 
            "eccentricity": 0.8575207709491481, 
            "periapsisDistance": 76.14532827158985, 
            "timeOfPeriapsis": 2479301.250054684, 
            "semiMajorAxis": 534.4310800868618, 
            "apoapsisDistance": 992.7168319021338, 
            "meanAnomalyAtEpoch": 358.200041179108, 
]